{"type": "FeatureCollection", "features": [ {"type": "Feature", "properties": {"norad_id": 31412, "name": "FENGYUN 1C DEB", "group": "fengyun-1c-debris", "lat": 5.170446019129199, "lon": 125.90257199397101, "alt_km": 889.3167078570905, "timestamp": "2025-12-27T23:26:37.644868+00:00", "meta": {"OBJECT_NAME": "FENGYUN 1C DEB", "OBJECT_ID": "1999-025BSY", "EPOCH": "2025-12-25T14:24:19.497888", "MEAN_MOTION": 14.09916522, "ECCENTRICITY": 0.0082622, "INCLINATION": 98.552, "RA_OF_ASC_NODE": 302.8633, "ARG_OF_PERICENTER": 299.2185, "MEAN_ANOMALY": 60.0742, "EPHEMERIS_TYPE": 0, "CLASSIFICATION_TYPE": "U", "NORAD_CAT_ID": 31412, "ELEMENT_SET_NO": 999, "REV_AT_EPOCH": 61173, "BSTAR": 0.0017789, "MEAN_MOTION_DOT": 3.193e-05, "MEAN_MOTION_DDOT": 0}, "tle": {"line1": "1 31412U 99025BSY 25359.60022567  .00003193  00000+0  17789-2 0  9997", "line2": "2 31412  98.5520 302.8633 0082622 299.2185  60.0742 14.09916522611739"}}, "geometry": {"type": "Point", "coordinates": [125.90257199397101, 5.170446019129199]}}, {"type": "Feature", "properties": {"norad_id": 31415, "name": "FENGYUN 1C DEB", "group": "fengyun-1c-debris", "lat": 80.34333496851738, "lon": -131.47278941501312, "alt_km": 757.4372452995622, "timestamp": "2025-12-27T23:26:37.644879+00:00", "meta": {"OBJECT_NAME": "FENGYUN 1C DEB", "OBJECT_ID": "1999-025BTB", "EPOCH": "2025-12-14T14:26:42.789696", "MEAN_MOTION": 14.30617484, "ECCENTRICITY": 0.00641277, "INCLINATION": 99.6387, "RA_OF_ASC_NODE": 300.8477, "ARG_OF_PERICENTER": 69.4394, "MEAN_ANOMALY": 291.365, "EPHEMERIS_TYPE": 0, "CLASSIFICATION_TYPE": "U", "NORAD_CAT_ID": 31415, "ELEMENT_SET_NO": 999, "REV_AT_EPOCH": 62857, "BSTAR": 0.0013058291, "MEAN_MOTION_DOT": 3.436e-05, "MEAN_MOTION_DDOT": 0}, "tle": {"line1": "1 31415U 99025BTB 25348.60188414  .00003436  00000+0  13058-2 0  9997", "line2": "2 31415  99.6387 300.8477 0064127  69.4394 291.3650 14.30617484628574"}}, "geometry": {"type": "Point", "coordinates": [-131.47278941501312, 80.34333496851738]}}, {"type": "Feature", "properties": {"norad_id": 31416, "name": "FENGYUN 1C DEB", "group": "fengyun-1c-debris", "lat": -39.39900411488681, "lon": 60.60729507228579, "alt_km": 800.5748328630907, "timestamp": "2025-12-27T23:26:37.644890+00:00", "meta": {"OBJECT_NAME": "FENGYUN 1C DEB", "OBJECT_ID": "1999-025BTC", "EPOCH": "2025-12-26T09:17:43.588320", "MEAN_MOTION": 14.40699344, "ECCENTRICITY": 0.0133309, "INCLINATION": 99.0496, "RA_OF_ASC_NODE": 51.4042, "ARG_OF_PERICENTER": 210.5718, "MEAN_ANOMALY": 148.7651, "EPHEMERIS_TYPE": 0, "CLASSIFICATION_TYPE": "U", "NORAD_CAT_ID": 31416, "ELEMENT_SET_NO": 999, "REV_AT_EPOCH": 65716, "BSTAR": 0.00028653, "MEAN_MOTION_DOT": 9.62e-06, "MEAN_MOTION_DDOT": 0}, "tle": {"line1": "1 31416U 99025BTC 25360.38731005  .00000962  00000+0  28653-3 0  9996", "line2": "2 31416  99.0496  51.4042 0133309 210.5718 148.7651 14.40699344657164"}}, "geometry": {"type": "Point", "coordinates": [60.60729507228579, -39.39900411488681]}}, {"type": "Feature", "properties": {"norad_id": 31420, "name": "FENGYUN 1C DEB", "group": "fengyun-1c-debris", "lat": 11.418412926033367, "lon": 79.70825090420608, "alt_km": 793.0774702814351, "timestamp": "2025-12-27T23:26:37.644900+00:00", "meta": {"OBJECT_NAME": "FENGYUN 1C DEB", "OBJECT_ID": "1999-025BTG", "EPOCH": "2025-12-24T23:03:15.845184", "MEAN_MOTION": 14.40861261, "ECCENTRICITY": 0.01349187, "INCLINATION": 97.5586, "RA_OF_ASC_NODE": 255.5032, "ARG_OF_PERICENTER": 290.3751, "MEAN_ANOMALY": 83.1637, "EPHEMERIS_TYPE": 0, "CLASSIFICATION_TYPE": "U", "NORAD_CAT_ID": 31420, "ELEMENT_SET_NO": 999, "REV_AT_EPOCH": 65170, "BSTAR": 0.00064552807, "MEAN_MOTION_DOT": 2.264e-05, "MEAN_MOTION_DDOT": 0}, "tle": {"line1": "1 31420U 99025BTG 25358.96060006  .00002264  00000+0  64553-3 0  9994", "line2": "2 31420  97.5586 255.5032 0134918 290.3751  83.1637 14.40861261651707"}}, "geometry": {"type": "Point", "coordinates": [79.70825090420608, 11.418412926033367]}}, {"type": "Feature", "properties": {"norad_id": 31422, "name": "FENGYUN 1C DEB", "group": "fengyun-1c-debris", "lat": 10.659159431362063, "lon": -179.817002531736, "alt_km": 860.9887014865753, "timestamp": "2025-12-27T23:26:37.644910+00:00", "meta": {"OBJECT_NAME": "FENGYUN 1C DEB", "OBJECT_ID": "1999-025BTJ", "EPOCH": "2025-12-25T04:32:49.257600", "MEAN_MOTION": 14.09637595, "ECCENTRICITY": 0.00336758, "INCLINATION": 98.7605, "RA_OF_ASC_NODE": 355.8078, "ARG_OF_PERICENTER": 264.7622, "MEAN_ANOMALY": 167.559, "EPHEMERIS_TYPE": 0, "CLASSIFICATION_TYPE": "U", "NORAD_CAT_ID": 31422, "ELEMENT_SET_NO": 999, "REV_AT_EPOCH": 95837, "BSTAR": 0.00030191894, "MEAN_MOTION_DOT": 4.89e-06, "MEAN_MOTION_DDOT": 0}, "tle": {"line1": "1 31422U 99025BTJ 25359.18945900  .00000489  00000+0  30192-3 0  9995", "line2": "2 31422  98.7605 355.8078 0033675 264.7622 167.5590 14.09637595958372"}}, "geometry": {"type": "Point", "coordinates": [-179.817002531736, 10.659159431362063]}}, {"type": "Feature", "properties": {"norad_id": 31423, "name": "FENGYUN 1C DEB", "group": "fengyun-1c-debris", "lat": -62.521185815419166, "lon": -0.7028947927527956, "alt_km": 844.4899956711315, "timestamp": "2025-12-27T23:26:37.644920+00:00", "meta": {"OBJECT_NAME": "FENGYUN 1C DEB", "OBJECT_ID": "1999-025BTK", "EPOCH": "2025-12-25T16:03:20.256480", "MEAN_MOTION": 14.229799, "ECCENTRICITY": 0.00367635, "INCLINATION": 98.5847, "RA_OF_ASC_NODE": 340.1629, "ARG_OF_PERICENTER": 156.3859, "MEAN_ANOMALY": 203.9017, "EPHEMERIS_TYPE": 0, "CLASSIFICATION_TYPE": "U", "NORAD_CAT_ID": 31423, "ELEMENT_SET_NO": 999, "REV_AT_EPOCH": 97152, "BSTAR": 0.00014479863, "MEAN_MOTION_DOT": 2.86e-06, "MEAN_MOTION_DDOT": 0}, "tle": {"line1": "1 31423U 99025BTK 25359.66898445  .00000286  00000+0  14480-3 0  9997", "line2": "2 31423  98.5847 340.1629 0036763 156.3859 203.9017 14.22979900971522"}}, "geometry": {"type": "Point", "coordinates": [-0.7028947927527956, -62.521185815419166]}}, {"type": "Feature", "properties": {"norad_id": 31424, "name": "FENGYUN 1C DEB", "group": "fengyun-1c-debris", "lat": -26.875248998763, "lon": 49.397765644029086, "alt_km": 869.3649967086158, "timestamp": "2025-12-27T23:26:37.644930+00:00", "meta": {"OBJECT_NAME": "FENGYUN 1C DEB", "OBJECT_ID": "1999-025BTL", "EPOCH": "2025-12-26T01:32:08.802528", "MEAN_MOTION": 14.08369117, "ECCENTRICITY": 0.00942959, "INCLINATION": 98.4797, "RA_OF_ASC_NODE": 43.2634, "ARG_OF_PERICENTER": 67.8382, "MEAN_ANOMALY": 293.2764, "EPHEMERIS_TYPE": 0, "CLASSIFICATION_TYPE": "U", "NORAD_CAT_ID": 31424, "ELEMENT_SET_NO": 999, "REV_AT_EPOCH": 63358, "BSTAR": 0.00025728605, "MEAN_MOTION_DOT": 4.19e-06, "MEAN_MOTION_DDOT": 0}, "tle": {"line1": "1 31424U 99025BTL 25360.06399077  .00000419  00000+0  25729-3 0  9997", "line2": "2 31424  98.4797  43.2634 0094295  67.8382 293.2764 14.08369117633583"}}, "geometry": {"type": "Point", "coordinates": [49.397765644029086, -26.875248998763]}}, {"type": "Feature", "properties": {"norad_id": 31426, "name": "FENGYUN 1C DEB", "group": "fengyun-1c-debris", "lat": -63.028046063189336, "lon": -38.81212660205844, "alt_km": 969.4991271593781, "timestamp": "2025-12-27T23:26:37.644940+00:00", "meta": {"OBJECT_NAME": "FENGYUN 1C DEB", "OBJECT_ID": "1999-025BTN", "EPOCH": "2025-12-24T16:38:35.634336", "MEAN_MOTION": 13.9016565, "ECCENTRICITY": 0.03242634, "INCLINATION": 98.5802, "RA_OF_ASC_NODE": 155.4094, "ARG_OF_PERICENTER": 153.1493, "MEAN_ANOMALY": 224.4865, "EPHEMERIS_TYPE": 0, "CLASSIFICATION_TYPE": "U", "NORAD_CAT_ID": 31426, "ELEMENT_SET_NO": 999, "REV_AT_EPOCH": 93739, "BSTAR": 0.0020398597, "MEAN_MOTION_DOT": 3.82e-05, "MEAN_MOTION_DDOT": 0}, "tle": {"line1": "1 31426U 99025BTN 25358.69346799  .00003820  00000+0  20399-2 0  9994", "line2": "2 31426  98.5802 155.4094 0324263 153.1493 224.4865 13.90165650937392"}}, "geometry": {"type": "Point", "coordinates": [-38.81212660205844, -63.028046063189336]}}, {"type": "Feature", "properties": {"norad_id": 31427, "name": "FENGYUN 1C DEB", "group": "fengyun-1c-debris", "lat": -20.79355416614401, "lon": 115.01654439111883, "alt_km": 679.9176513368266, "timestamp": "2025-12-27T23:26:37.644951+00:00", "meta": {"OBJECT_NAME": "FENGYUN 1C DEB", "OBJECT_ID": "1999-025BTP", "EPOCH": "2025-12-27T02:08:31.742592", "MEAN_MOTION": 14.58963822, "ECCENTRICITY": 0.00311117, "INCLINATION": 98.6682, "RA_OF_ASC_NODE": 110.7696, "ARG_OF_PERICENTER": 333.162, "MEAN_ANOMALY": 26.7967, "EPHEMERIS_TYPE": 0, "CLASSIFICATION_TYPE": "U", "NORAD_CAT_ID": 31427, "ELEMENT_SET_NO": 999, "REV_AT_EPOCH": 97090, "BSTAR": 0.0027634826, "MEAN_MOTION_DOT": 0.00013022, "MEAN_MOTION_DDOT": 0}, "tle": {"line1": "1 31427U 99025BTP 25361.08925628  .00013022  00000+0  27635-2 0  9991", "line2": "2 31427  98.6682 110.7696 0031111 333.1620  26.7967 14.58963822970903"}}, "geometry": {"type": "Point", "coordinates": [115.01654439111883, -20.79355416614401]}}, {"type": "Feature", "properties": {"norad_id": 31428, "name": "FENGYUN 1C DEB", "group": "fengyun-1c-debris", "lat": -57.47926526753403, "lon": 139.85868382573207, "alt_km": 787.9193037312207, "timestamp": "2025-12-27T23:26:37.644961+00:00", "meta": {"OBJECT_NAME": "FENGYUN 1C DEB", "OBJECT_ID": "1999-025BTQ", "EPOCH": "2025-12-27T09:43:27.449184", "MEAN_MOTION": 14.42083373, "ECCENTRICITY": 0.0064546, "INCLINATION": 99.0401, "RA_OF_ASC_NODE": 333.7135, "ARG_OF_PERICENTER": 110.5037, "MEAN_ANOMALY": 41.4756, "EPHEMERIS_TYPE": 0, "CLASSIFICATION_TYPE": "U", "NORAD_CAT_ID": 31428, "ELEMENT_SET_NO": 999, "REV_AT_EPOCH": 97721, "BSTAR": 0.00083957, "MEAN_MOTION_DOT": 2.78e-05, "MEAN_MOTION_DDOT": 0}, "tle": {"line1": "1 31428U 99025BTQ 25361.40517881  .00002780  00000+0  83957-3 0  9995", "line2": "2 31428  99.0401 333.7135 0064546 110.5037  41.4756 14.42083373977218"}}, "geometry": {"type": "Point", "coordinates": [139.85868382573207, -57.47926526753403]}}]}